[Satellite]
VERSION=1.1
NAME=FIREBIRD FU3
NICKNAME=FIREBIRD FU3
TLE1=1 40377U 15003B   22335.18246701  .00021667  00000-0  53387-3 0  9995
TLE2=2 40377  99.0777 237.8846 0085640 176.4036 183.7837 15.36826995433955
STATUS=0
